LUCH-5A                 
1 37951U 11074B   26061.63875796 -.00000061  00000+0  00000+0 0  9990
2 37951   8.4827  75.3733 0004065 242.1610 239.9010  1.00275091 51987
NIGCOMSAT 1R            
1 38014U 11077A   26061.59652605  .00000128  00000+0  00000+0 0  9994
2 38014   0.0187 151.6782 0002476 171.0798  94.8655  1.00274791 51886
WGS F4 (USA 233)        
1 38070U 12003A   26061.53429909 -.00000231  00000+0  00000+0 0  9995
2 38070   0.0092 132.6935 0000821 140.8594 167.4632  1.00269465 43078
SES-4                   
1 38087U 12007A   26061.36985276 -.00000186  00000+0  00000+0 0  9991
2 38087   0.0330  62.3198 0002206 290.0932 278.8803  1.00270118 51156
BEIDOU-2 G5             
1 38091U 12008A   26061.65126463  .00000041  00000+0  00000+0 0  9993
2 38091   3.3078  70.3190 0014149 249.6788 133.6430  1.00275658 51300
MUOS-1                  
1 38093U 12009A   26061.56818591 -.00000141  00000+0  00000+0 0  9998
2 38093   5.2573  47.1945 0057027 357.6311 220.0296  1.00273945 51372
INTELSAT 22 (IS-22)     
1 38098U 12011A   26061.53636421 -.00000075  00000+0  00000+0 0  9999
2 38098   0.0283 102.4216 0001673 254.8239  68.2516  1.00271518  6110
APSTAR-7                
1 38107U 12013A   26061.17545854 -.00000119  00000+0  00000+0 0  9990
2 38107   0.0286 114.4113 0003318 239.7867 305.4205  1.00271092 50735
YAHSAT 1B               
1 38245U 12016A   26061.59756605  .00000110  00000+0  00000+0 0  9990
2 38245   0.0783  92.5118 0003282 251.7459  78.8170  1.00271706 44537
AEHF-2 (USA 235)        
1 38254U 12019A   26061.56759723 -.00000148  00000+0  00000+0 0  9996
2 38254   6.4028  58.2626 0003157 274.8452  15.0501  1.00273532  5911
JCSAT-13                
1 38331U 12023A   26061.61247279 -.00000373  00000+0  00000+0 0  9991
2 38331   0.0417 273.7151 0002061 110.5909 120.5598  1.00271565 50475
VINASAT-2               
1 38332U 12023B   26061.59628307 -.00000346  00000+0  00000+0 0  9994
2 38332   0.0434 306.4100 0002867  51.0341 149.4165  1.00270514 45596
NIMIQ 6                 
1 38342U 12026A   26061.57009259 -.00000191  00000+0  00000+0 0  9993
2 38342   0.0595 278.9549 0002649  56.0369 299.4770  1.00271052 49341
ZHONGXING-2A            
1 38352U 12028A   26061.62718300 -.00000309  00000+0  00000+0 0  9997
2 38352   1.1784  85.3797 0001314 224.0316 175.0152  1.00273266 50238
INTELSAT 19 (IS-19)     
1 38356U 12030A   26061.59893426  .00000000  00000+0  00000+0 0  9990
2 38356   0.0248 152.1432 0003157 204.3272 185.5412  1.00269288 49381
ECHOSTAR 17             
1 38551U 12035A   26061.56688590 -.00000092  00000+0  00000+0 0  9995
2 38551   0.0188 128.5431 0001913 213.5644 275.1965  1.00271704 49992
METEOSAT-10 (MSG-3)     
1 38552U 12035B   26061.39350299 -.00000019  00000+0  00000+0 0  9998
2 38552   4.4189  61.4711 0002470 291.5108 309.0941  1.00276803 49781
SES-5                   
1 38652U 12036A   26061.39350299  .00000016  00000+0  00000+0 0  9996
2 38652   0.0626 307.8056 0001918  23.5348 335.4588  1.00272505 43389
INTELSAT 20 (IS-20)     
1 38740U 12043A   26061.61493565 -.00000041  00000+0  00000+0 0  9990
2 38740   0.0239 125.4310 0002373  38.1134 286.7059  1.00272483 49679
HYLAS 2                 
1 38741U 12043B   26061.57373260 -.00000274  00000+0  00000+0 0  9993
2 38741   2.1521  82.4095 0002604 277.0143 294.8977  1.00271005 49702
INTELSAT 21 (IS-21)     
1 38749U 12045A   26061.63127406 -.00000302  00000+0  00000+0 0  9991
2 38749   0.0406 270.9473 0001777  71.8207 346.8930  1.00271210 49451
ASTRA 2F                
1 38778U 12051A   26061.59375271  .00000133  00000+0  00000+0 0  9991
2 38778   0.0771 259.4252 0002733  14.5550 128.3072  1.00273192 40062
GSAT-10                 
1 38779U 12051B   26061.65864067 -.00000181  00000+0  00000+0 0  9999
2 38779   0.0778 264.2169 0004067 175.2565  41.0193  1.00273321 49039
INTELSAT 23 (IS-23)     
1 38867U 12057A   26061.64482961 -.00000302  00000+0  00000+0 0  9996
2 38867   0.0484 262.1218 0001020  79.6465 357.7826  1.00274352 48882
BEIDOU-2 G6             
1 38953U 12059A   26061.66179150 -.00000189  00000+0  00000+0 0  9992
2 38953   4.1515  74.6633 0010364 302.0559 105.9486  1.00269389 48848
LUCH-5B                 
1 38977U 12061A   26061.56879604 -.00000149  00000+0  00000+0 0  9997
2 38977  10.2544  50.9217 0004477 221.7123  76.1623  1.00271410 48537
YAMAL 300K              
1 38978U 12061B   26061.64512411  .00000054  00000+0  00000+0 0  9991
2 38978   0.0136 214.6395 0000830  40.6664 320.2908  1.00271532 48562
STAR ONE C3             
1 38991U 12062A   26061.50197227 -.00000266  00000+0  00000+0 0  9992
2 38991   0.0439 285.0472 0002248  65.9161 275.0136  1.00272688 48695
EUTELSAT 21B            
1 38992U 12062B   26061.62235500  .00000113  00000+0  00000+0 0  9993
2 38992   0.0678 353.7516 0002848 343.7434  68.5293  1.00270798 48755
ECHOSTAR 16             
1 39008U 12065A   26061.57572595 -.00000299  00000+0  00000+0 0  9993
2 39008   0.0139 135.2312 0001941 207.7524 323.1046  1.00270389 48577
ZHONGXING-12            
1 39017U 12067A   26061.66077726 -.00000223  00000+0  00000+0 0  9998
2 39017   0.0381 107.2078 0003431 225.3274 153.2636  1.00270762 48446
EUTELSAT 70B            
1 39020U 12069A   26061.53636421 -.00000060  00000+0  00000+0 0  9992
2 39020   0.0658   5.1021 0002127 315.6517 103.1385  1.00272351 48435
YAMAL 402               
1 39022U 12070A   26061.59903940  .00000069  00000+0  00000+0 0  9993
2 39022   0.9906  85.6371 0004123 253.4119  91.8629  1.00271896 48323
SKYNET 5D               
1 39034U 12075A   26061.59860605  .00000083  00000+0  00000+0 0  9997
2 39034   0.0737   5.3628 0003854 333.7552  89.4501  1.00272907 48085
MEXSAT 3                
1 39035U 12075B   26061.56702607 -.00000042  00000+0  00000+0 0  9998
2 39035   0.0148 196.7866 0001637 129.4210 283.4454  1.00269565  5980
TDRS 11                 
1 39070U 13004A   26061.64372771  .00000065  00000+0  00000+0 0  9998
2 39070   3.3647  29.3186 0003909 349.7250 198.7393  1.00275944 45623
AMAZONAS 3              
1 39078U 13006A   26061.57572595 -.00000299  00000+0  00000+0 0  9996
2 39078   0.0342 220.4046 0002475 102.8273 343.3395  1.00268881 43840
AZERSPACE 1             
1 39079U 13006B   26061.52589237  .00000116  00000+0  00000+0 0  9990
2 39079   0.0184 237.3019 0000980 114.3088  43.9689  1.00273287 47730
SBIRS GEO-2 (USA 241)   
1 39120U 13011A   26061.32822449 -.00000301  00000+0  00000+0 0  9993
2 39120   4.2569  52.3798 0002112 277.6605 258.4425  1.00281035 47467
EUTELSAT 117 WEST A     
1 39122U 13012A   26061.53940263 -.00000030  00000+0  00000+0 0  9993
2 39122   0.0573 289.5669 0003067  57.6709 250.4523  1.00272674 47369
ANIK G1                 
1 39127U 13014A   26061.56688590 -.00000091  00000+0  00000+0 0  9992
2 39127   0.0595 271.3073 0003116  47.7791 298.0174  1.00271450 47183
ZHONGXING-11            
1 39157U 13020A   26061.53620575  .00000000  00000+0  00000+0 0  9997
2 39157   0.0070 199.3367 0003048 118.7216 133.2177  1.00271190 46828
EUTELSAT 7B             
1 39163U 13022A   26061.58941935  .00000031  00000+0  00000+0 0  9991
2 39163   0.0693 347.2176 0006296   4.3711  27.9373  1.00271583 46874
WGS F5 (USA 243)        
1 39168U 13024A   26061.32822449 -.00000302  00000+0  00000+0 0  9990
2 39168   0.0074 135.3996 0000331 177.5097 272.8582  1.00273123 46103
SES-6                   
1 39172U 13026A   26061.50881897 -.00000278  00000+0  00000+0 0  9991
2 39172   0.0703 286.7910 0001869  54.8533 321.2890  1.00272736 46653
IRNSS-1A                
1 39199U 13034A   26061.59877940  .00000079  00000+0  00000+0 0  9990
2 39199  35.4853  65.3923 0017849 190.7042 174.8535  1.00269524 46306
MUOS-2                  
1 39206U 13036A   26061.64235380 -.00000026  00000+0  00000+0 0  9996
2 39206   4.7822  45.3197 0053193 184.1373 334.2003  1.00273204 46129
ALPHASAT                
1 39215U 13038A   26061.16514515  .00000118  00000+0  00000+0 0  9996
2 39215   2.9811   2.1998 0001906 349.6196 252.4564  1.00270261 42942
INSAT-3D                
1 39216U 13038B   26061.59628307 -.00000356  00000+0  00000+0 0  9994
2 39216   1.6508  83.9377 0002164 236.3244 184.2293  1.00269239 46019
WGS F6 (USA 244)        
1 39222U 13041A   26061.64141830  .00000072  00000+0  00000+0 0  9996
2 39222   0.0052 140.0695 0001580 183.1928 292.8462  1.00273080 44998
ES'HAIL 1               
1 39233U 13044A   26061.59323270  .00000126  00000+0  00000+0 0  9995
2 39233   0.0551 344.0222 0003093 357.6072  57.7894  1.00269996 45556
GSAT-7                  
1 39234U 13044B   26061.61616524 -.00000094  00000+0  00000+0 0  9991
2 39234   0.0166 112.6057 0006746 179.8765 163.7150  1.00271206 44183
AMOS-4                  
1 39237U 13045A   26061.61392065 -.00000009  00000+0  00000+0 0  9992
2 39237   0.0122 177.5585 0003298 170.7174  98.1145  1.00271871 45888
AEHF-3 (USA 246)        
1 39256U 13050A   26061.57157944  .00000015  00000+0  00000+0 0  9995
2 39256   5.0309  68.1681 0091775 187.8684 345.8102  1.00272323 44589
ASTRA 2E                
1 39285U 13056A   26061.59375271  .00000133  00000+0  00000+0 0  9991
2 39285   0.0672  27.0413 0002199 307.2368  68.3069  1.00271184 45343
FM-6                    
1 39360U 13058A   26061.52977757 -.00000033  00000+0  00000+0 0  9997
2 39360   0.0207 131.0408 0003133  50.7989  53.0026  1.00269270 45009
RADUGA-1M 3             
1 39375U 13062A   26061.64515705  .00000139  00000+0  00000+0 0  9998
2 39375   5.6917  73.7013 0000260 247.8921 106.0593  1.00272312 45033
SES-8                   
1 39460U 13071A   26061.61318674 -.00000285  00000+0  00000+0 0  9999
2 39460   0.0622 272.7609 0001675  99.9747 103.3736  1.00267709 43373
INMARSAT 5-F1           
1 39476U 13073A   26061.62137478  .00000012  00000+0  00000+0 0  9997
2 39476   0.0177 123.0331 0000656 209.2148 114.3969  1.00270327 44500
